"key","streetaddress","city","state","zipcode"
"96600001","4745 SOUTHERN STREET","LEVITTOWN","NY","11756"
"96600002","2082 GOLDEN RIDGE ROAD","NORTH GREENBUSH","NY","12180"
"96600003","4759 MICHAEL STREET","HOUSTON","TX","77033"
"96600004","1699 CRESTVIEW TERRACE","NEW BRAUNFELS","TX","78130"
"96600005","3961 PLATINUM DRIVE","CRIDERS CORNERS","PA","16033"
"96600006","1898 GARRETT STREET","PHILADELPHIA","PA","19123"
"96600007","286 WEST VIRGINIA AVENUE","SARANAC LAKE","NY","12983"
"96600008","4056 JARVISVILLE ROAD","MINEOLA","NY","11501"
"96600009","3809 WEST VIRGINIA AVENUE","COLONIE","NY","12205"
"96600010","2724 SETH STREET","MERCURY","TX","76801"
"96600011","2872 BEEGHLEY STREET","MARLIN","TX","76661"
"96600012","1596 PAYNE STREET","HOUSTON","TX","77032"
"96600013","1105 PATTERSON ROAD","BRONX","NY","10461"
"96600014","725 HANOVER STREET","NEW YORK","NY","10016"
"96600015","3359 WARD ROAD","EL PASO","TX","79901"
"96600016","537 LINDEN AVENUE","ORLANDO","FL","32805"
"96600017","2066 JAMES AVENUE","MADISON","NY","13402"
"96600018","3812 SAINT JAMES DRIVE","SHIPPENSBURG","PA","17257"
"96600019","460 SHINN STREET","NEW YORK","NY","10281"
"96600020","811 OLEN THOMAS DRIVE","ROSSTON","TX","76263"
"96600021","4163 KENWOOD PLACE","JUPITER","FL","33478"
"96600022","4670 POINTE LANE","POMPANO BEACH","FL","33060"
"96600023","2704 GAMBLER LANE","HOUSTON","TX","77060"
"96600024","4062 SHORT STREET","AUSTIN","TX","78701"
"96600025","4077 MARIGOLD LANE","MIAMI","FL","33179"
"96600026","193 MULBERRY LANE","JUPITER","FL","33458"
"96600027","248 BROOKE STREET","HOUSTON","TX","77020"
"96600028","4509 HOFFMAN AVENUE","HUNTINGTON","NY","11743"
"96600029","3907 BARNES STREET","ORLANDO","FL","32809"
"96600030","4808 TIMBER OAK DRIVE","JAYTON","TX","79528"
"96600031","2317 WESTWOOD AVENUE","FARMINGDALE","NY","11735"
"96600032","3738 MY DRIVE","NEW YORK","NY","10013"
"96600033","589 HEMLOCK LANE","BROWNSVILLE","TX","78520"
"96600034","4342 ANTHONY AVENUE","PAINT ROCK","TX","76866"
"96600035","3758 WERNINGER STREET","HOUSTON","TX","77032"
"96600036","1252 WOODROW WAY","HUXLEY","TX","77000"
"96600037","4415 ARROWOOD DRIVE","JACKSONVILLE","FL","32217"
"96600038","4430 BUBBY DRIVE","LOCKHART","TX","52698"
"96600039","3514 EVERETTE ALLEY","FORT LAUDERDALE","FL","33301"
"96600040","4029 WILLIS AVENUE","PALATKA","FL","32077"
"96600041","1410 BOONE STREET","YOAKUM","TX","77995"
"96600042","4738 CIRCLE DRIVE","HOUSTON","TX","77036"
"96600043","734 BARNES STREET","ORLANDO","FL","32808"
"96600044","2459 BIRD SPRING LANE","CLEVELAND","TX","77327"
"96600045","734 BIRD SPRING LANE","HOUSTON","TX","77014"
"96600046","3976 SPRING AVENUE","PHILADELPHIA","PA","19123"
"96600047","4833 ELKVIEW DRIVE","LAKE WORTH","FL","33463"
"96600048","284 GOLDEN STREET","MIAMI","FL","33169"
"96600049","590 STEVE HUNT ROAD","MIRAMAR","FL","33025"
"96600050","3036 CHAPEL STREET","HOUSTON","TX","77077"
"96600051","4787 WAKEFIELD STREET","LANSDALE","PA","19446"
"96600052","1430 POPLAR LANE","MIAMI","FL","33179"
"96600053","2336 MULBERRY STREET","NACOGDOCHES","TX","75964"
"96600054","3304 WASHINGTON STREET","CORPUS CHRISTI","TX","78401"
"96600055","1914 PHEASANT RIDGE ROAD","PHILADELPHIA","PA","19154"
"96600056","32 JACOBS STREET","PITTSBURGH","PA","15201"
"96600057","3718 HALL PLACE","MERIT","TX","75072"
"96600058","3134 GROVE STREET","GARDEN CITY","NY","11530"
"96600059","2245 ASH STREET","DALLAS","TX","75244"
"96600060","3898 LONGVIEW AVENUE","NEW YORK","NY","10014"
"96600061","4694 BURNING MEMORY LANE","PHILADELPHIA","PA","19108"
"96600062","1857 CAROLYNS CIRCLE","ROCKWALL","TX","75087"
"96600063","4510 ALPHA AVENUE","JACKSONVILLE BEACH","FL","32250"
"96600064","1053 GNATTY CREEK ROAD","SYOSSET","NY","11791"
"96600065","327 STANLEY AVENUE","WOODMERE","NY","11598"
"96600066","3693 SOUTHERN STREET","GARDEN CITY","NY","11530"
"96600067","3936 SOUTHERN STREET","MANHASSET","NY","11030"
"96600068","3234 RHAPSODY STREET","GAINESVILLE","FL","32601"
"96600069","4915 JARVISVILLE ROAD","HICKSVILLE","NY","11801"
"96600070","1349 FARNUM ROAD","NEW YORK","NY","10029"
"96600071","2255 SHORT STREET","GEORGETOWN","TX","78626"
"96600072","3702 COAL ROAD","STROUDSBURG","PA","18360"
"96600073","3916 ROCKY ROAD","PHILADELPHIA","PA","19104"
"96600074","2648 FLORENCE STREET","CAYUGA","TX","12345"
"96600075","294 SAINTS ALLEY","TAMPA","FL","33610"
"96600076","1621 STANLEY AVENUE","H966STEAD","NY","11550"
"96600077","3735 CARRIAGE LANE","SHENANDOAH","PA","17976"
"96600078","2920 CLIFFSIDE DRIVE","BINGHAMTON","NY","13901"
"96600079","33 SUNBURST DRIVE","FORT MYERS","FL","33901"
"96600080","35 PLAINFIELD AVENUE","SYRACUSE","NY","13224"
"96600081","4121 HENRY FORD AVENUE","BROOKLYN","NY","11206"
"96600082","1142 JARVIS STREET","OLEAN","NY","14760"
"96600083","553 OAKRIDGE LANE","IRVING","TX","75039"
"96600084","1469 SAINTS ALLEY","TAMPA","FL","33614"
"96600085","4998 BRIERCLIFF ROAD","REGO PARK QUEENS","NY","11734"
"96600086","4425 FANCHER DRIVE","FORT WORTH","TX","76104"
"96600087","1697 CONFEDERATE DRIVE","SYRACUSE","NY","13221"
"96600088","1976 ANMOORE ROAD","BROOKLYN","NY","11201"
"96600089","2705 SMITHFIELD AVENUE","LUBBOCK","TX","79401"
"96600090","3281 HARDESTY STREET","ALBANY","NY","12206"
"96600091","3066 ALFRED DRIVE","BROOKLYN","NY","11204"
"96600092","2766 BOTTOM LANE","GRAND ISLAND","NY","14072"
"96600093","1566 ANTHONY AVENUE","ABILENE","TX","79601"
"96600094","1166 GIRAFFE HILL DRIVE","DALLAS","TX","75247"
"96600095","4648 TYLER AVENUE","HIALEAH","FL","33012"
"96600096","4987 SPRING AVENUE","NORRISTOWN","PA","19403"
"96600097","2672 BOONE STREET","CORPUS CHRISTI","TX","78401"
"96600098","2138 COLLINS STREET","TAMPA","FL","33619"
"96600099","1311 OLD DEAR LANE","CUDDEBACKVILLE","NY","12729"
"96600100","104 PLATINUM DRIVE","SLIPPERY ROCK","PA","16057"
"96600101","3097 SAINT JAMES DRIVE","ICKESBURG","PA","17037"
"96600102","3949 ANTHONY AVENUE","MULLIN","TX","76864"
"96600103","2989 MARSHVILLE ROAD","POUGHKEEPSIE","NY","12601"
"96600104","4998 BENEDUM DRIVE","AMENIA","NY","12501"
"96600105","2291 TIPPLE ROAD","PHILADELPHIA","PA","19108"
"96600106","3396 WHISPERING PINES CIRCLE","WAXAHACHIE","TX","75165"
"96600107","2240 RHAPSODY STREET","WILDWOOD","FL","34785"
"96600108","1272 CHARMAINE LANE","LUBBOCK","TX","79423"
"96600109","2023 SUNBURST DRIVE","CYPRESS LAKE","FL","33907"
"96600110","4725 BOUNDARY STREET","JACKSONVILLE","FL","32216"
"96600111","988 SMALL STREET","NEW YORK","NY","10038"
"96600112","4961 FOREST AVENUE","MINEOLA","NY","11501"
"96600113","1160 ROMINES MILL ROAD","FORT WORTH","TX","76104"
"96600114","2817 NORMA AVENUE","NAVASOTA","TX","77868"
"96600115","1350 MICHAEL STREET","HOUSTON","TX","77006"
"96600116","4243 EVERETTE ALLEY","FORT LAUDERDALE","FL","33308"
"96600117","3706 TETRICK ROAD","WINTER HAVEN","FL","33881"
"96600118","2228 BURWELL HEIGHTS ROAD","BRIDGE CITY","TX","77611"
"96600119","1822 WASHINGTON STREET","PREMONT","TX","78375"
"96600120","29 LUCKY DUCK DRIVE","PITTSBURGH","PA","15212"
"96600121","4504 BAGWELL AVENUE","GAINESVILLE","FL","32601"
"96600122","4529 TRAVIS STREET","DORAL","FL","33166"
"96600123","3085 BOTTOM LANE","BUFFALO","NY","14214"
"96600124","2801 OAK DRIVE","MOIRA","NY","12957"
"96600125","1482 TAYLOR STREET","DOBBS FERRY","NY","10522"
"96600126","3158 FRANK AVENUE","CRAFTON","PA","15205"
"96600127","2357 FANCHER DRIVE","DALLAS","TX","75201"
"96600128","1348 CHARMAINE LANE","BOYS RANCH","TX","79092"
"96600129","276 FRANKLIN AVENUE","DAYTONA BEACH","FL","32114"
"96600130","867 BROOKE STREET","HOUSTON","TX","77006"
"96600131","1865 CHURCH STREET","FOREST HILLS","NY","11375"
"96600132","3747 CHURCH STREET","BROOKLYN","NY","11213"
"96600133","2524 ARROWOOD DRIVE","GREEN COVE SPRINGS","FL","32043"
"96600134","3614 CHURCH STREET","BROOKLYN","NY","11219"
"96600135","2126 PAYNE STREET","HOUSTON","TX","77062"
"96600136","152 GREY FOX FARM ROAD","HOUSTON","TX","77032"
"96600137","2320 ABIA MARTIN DRIVE","COMMACK","NY","11725"
"96600138","4352 BEECHWOOD DRIVE","PITTSBURGH","PA","15212"
"96600139","1088 CHARMAINE LANE","UMBARGER","TX","79091"
"96600140","4399 OLEN THOMAS DRIVE","BOONSVILLE","TX","12345"
"96600141","4059 HIDDEN VALLEY ROAD","LEBANON","PA","17042"
"96600142","95 AGRICULTURE LANE","FORT LAUDERDALE","FL","33311"
"96600143","4118 JODY ROAD","PAOLI","PA","19301"
"96600144","3627 ORPHAN ROAD","BUFFALO","NY","14202"
"96600145","3899 MOUNT TABOR","NEW YORK","NY","10013"
"96600146","540 MY DRIVE","NEW YORK","NY","10013"
"96600147","1766 BROOKE STREET","HOUSTON","TX","77016"
"96600148","727 MARSHVILLE ROAD","PEARL RIVER","NY","10965"
"96600149","549 MCDONALD AVENUE","LAKE BUENA VISTA","FL","32830"
"96600150","4395 GLENVIEW DRIVE","VICTORIA","TX","77901"
"96600151","234 PICKENS WAY","KERENS","TX","75144"
"96600152","2048 CAMERON ROAD","NIAGARA FALLS","NY","14301"
"96600153","1010 AARON SMITH DRIVE","HARRISBURG","PA","17101"
"96600154","4395 ABIA MARTIN DRIVE","BABYLON","NY","11702"
"96600155","623 WESTWOOD AVENUE","MINEOLA","NY","11501"
"96600156","4174 JACOBS STREET","PITTSBURGH","PA","15226"
"96600157","3994 ARBUTUS DRIVE","MIAMI SPRINGS","FL","33166"
"96600158","2500 STONEY LANE","WAXAHACHIE","TX","75165"
"96600159","4498 HIGH MEADOW LANE","HARRISBURG","PA","17109"
"96600160","524 OLEN THOMAS DRIVE","NOCONA","TX","76255"
"96600161","2370 LUCKY DUCK DRIVE","CRAFTON","PA","15205"
"96600162","2945 ABIA MARTIN DRIVE","BRENTWOOD","NY","11717"
"96600163","2858 WALDECK STREET","ARLINGTON","TX","76013"
"96600164","2737 HIDDEN VALLEY ROAD","HARRISBURG","PA","17101"
"96600165","1614 PHEASANT RIDGE ROAD","PHILADELPHIA","PA","19103"
"96600166","1207 STONEY LONESOME ROAD","MORRIS","PA","16938"
"96600167","1671 SIMPSON AVENUE","JONESTOWN (LEBANON)","PA","17038"
"96600168","2791 FROSTY LANE","CORNING","NY","14830"
"96600169","3264 OAK STREET","MASSENA","NY","13662"
"96600170","4643 ALPHA AVENUE","ATHENS","TX","75751"
"96600171","2658 BAKER AVENUE","FORT WORTH","TX","76147"
"96600172","157 STILES STREET","PITTSBURGH","PA","15237"
"96600173","69 RENWICK DRIVE","PHILADELPHIA","PA","19108"
"96600174","3722 HEAVENS WAY","FORT MYERS","FL","33901"
"96600175","2559 BAKER AVENUE","ACTON","TX","76050"
"96600176","3354 DANCING DOVE LANE","LONG ISLAND CITY","NY","11101"
"96600177","4393 GIRAFFE HILL DRIVE","PLANO","TX","75074"
"96600178","3933 ARBUTUS DRIVE","HIALEAH","FL","33012"
"96600179","1179 STILES STREET","PORTLAND","PA","97205"
"96600180","2966 CHARLA LANE","DALLAS","TX","75287"
"96600181","1235 WESTWOOD AVENUE","GARDEN CITY","NY","11530"
"96600182","3371 MY DRIVE","NEW YORK","NY","10013"
"96600183","1976 GODFREY ROAD","NEW YORK","NY","10013"
"96600184","2619 ADAMSVILLE ROAD","LAREDO","TX","78040"
"96600185","2375 TETRICK ROAD","FORT MYERS","FL","33901"
"96600186","1116 PINE STREET","BUTLER","PA","16001"
"96600187","558 RENWICK DRIVE","PHILADELPHIA","PA","19103"
"96600188","3262 COAL ROAD","HARVEYS LAKE","PA","18618"
"96600189","3206 JAMES STREET","BUFFALO","NY","14202"
"96600190","155 WYATT STREET","DELRAY BEACH","FL","33484"
"96600191","1956 MAPLEVIEW DRIVE","HUDSON","FL","34669"
"96600192","4470 ASH STREET","PLANO","TX","75074"
"96600193","1756 GERALDINE LANE","NEW YORK","NY","10011"
"96600194","588 QUINCY STREET","PHILADELPHIA","PA","19123"
"96600195","627 POCO MAS DRIVE","DALLAS","TX","75212"
"96600196","2573 MORRIS STREET","SAN ANTONIO","TX","78205"
"96600197","3175 OLIVER STREET","FORT WORTH","TX","76118"
"96600198","4636 BOONE STREET","CORPUS CHRISTI","TX","78476"
"96600199","2151 MICHIGAN AVENUE","BRIDGEVILLE","PA","15017"
"96600200","4057 HORSESHOE LANE","PHILADELPHIA","PA","19108"
"96600201","2096 PARRISH AVENUE","CARRIZO SPRINGS","TX","78834"
"96600202","4493 HIDDEN VALLEY ROAD","MOUNTVILLE","PA","17554"
"96600203","1542 CHERRY TREE DRIVE","JACKSONVILLE","FL","32207"
"96600204","777 NUZUM COURT","BUFFALO","NY","14209"
"96600205","587 CONFEDERATE DRIVE","UTICA","NY","13502"
"96600206","2485 BIRCH  STREET","EL PASO","TX","79930"
"96600207","1453 WATSON LANE","SMITHSONS VALLEY","TX","78130"
"96600208","496 RHAPSODY STREET","GAINESVILLE","FL","32607"
"96600209","3443 PATTERSON ROAD","ELMHURST","NY","11373"
"96600210","568 CLAIR STREET","BLUFFDALE","TX","76433"
"96600211","4469 VIRGIL STREET","PORT ST JOE","FL","32456"
"96600212","1419 MARIGOLD LANE","NORTH DADE","FL","33180"
"96600213","3304 FOREST AVENUE","WEST NYACK","NY","10994"
"96600214","863 LAUREL LANE","ODESSA","TX","79761"
"96600215","3372 MARYLAND AVENUE","TAMPA","FL","33610"
"96600216","115 BRENTWOOD DRIVE","COUPLAND","TX","78615"
"96600217","1929 LYNDON STREET","SINKING SPRING","PA","19608"
"96600218","2708 GRANT STREET","BULLARD","TX","75762"
"96600219","4435 THRASH TRAIL","PALESTINE","TX","12345"
"96600220","4890 TERRY LANE","ORLANDO","FL","32801"
"96600221","4301 MAPLEVIEW DRIVE","HUDSON","FL","34669"
"96600222","2992 MICHIGAN AVENUE","NEW CASTLE","PA","16101"
"96600223","4346 KENWOOD PLACE","FORT LAUDERDALE","FL","33306"
"96600224","3737 MARION DRIVE","TAMPA","FL","33637"
"96600225","2908 COLLINS STREET","ERIE","PA","16510"
"96600226","1075 MEDICAL CENTER DRIVE","TAMPA","FL","33610"
"96600227","2578 PHEASANT RIDGE ROAD","PHILADELPHIA","PA","19103"
"96600228","1601 SHORT STREET","AUSTIN","TX","78744"
"96600229","2723 HARLEY BROOK LANE","EVERETT","PA","15537"
"96600230","4269 COAL ROAD","PITTSTON","PA","18640"
"96600231","3784 CIRCLE DRIVE","HOUSTON","TX","77032"
"96600232","3755 QUINCY STREET","PHILADELPHIA","PA","19103"
"96600233","4607 ALPHA AVENUE","JACKSONVILLE","FL","32216"
"96600234","3698 MARION DRIVE","POLK CITY","FL","33868"
"96600235","3492 WHITE AVENUE","CORPUS CHRISTI","TX","78415"
"96600236","4815 BOUNDARY STREET","MACCLENNY","FL","32066"
"96600237","3353 LADY BUG DRIVE","STATEN ISLAND","NY","10312"
"96600238","1558 JACOBS STREET","BRIDGEVILLE","PA","15017"
"96600239","2514 GEORGE STREET","OCALA","FL","34471"
"96600240","1555 NEW YORK AVENUE","IRVING","TX","75063"
"96600241","2229 ROSEWOOD LANE","NEW YORK","NY","10022"
"96600242","4717 HILLTOP DRIVE","LUBBOCK","TX","79401"
"96600243","284 TODDS LANE","SAN ANTONIO","TX","78205"
"96600244","1287 LONG STREET","GARDEN CITY","NY","11530"
"96600245","1485 SARDIS STA","ARLINGTON","TX","76010"
"96600246","3012 BOUNDARY STREET","JACKSONVILLE","FL","32202"
"96600247","265 POINTE LANE","POMPANO BEACH","FL","33060"
"96600248","2860 OAK DRIVE","COLONIE","NY","12205"
"96600249","513 STUART STREET","PITTSBURGH","PA","15205"
"96600250","3457 BURWELL HEIGHTS ROAD","NEDERLAND","TX","77627"
"96600251","3574 HIGH MEADOW LANE","MOUNT PLEASANT MILLS","PA","17853"
"96600252","1307 COAL ROAD","VALLEY VIEW","PA","17983"
"96600253","965 FORMULA LANE","HOUSTON","TX","77060"
"96600254","3646 STONEY LANE","PLANO","TX","75075"
"96600255","1694 HANOVER STREET","GARDEN CITY","NY","11530"
"96600256","3288 BRENTWOOD DRIVE","AUSTIN","TX","78741"
"96600257","1384 GRAND AVENUE","ORLANDO","FL","32801"
"96600258","833 PARKVIEW DRIVE","HOUSTON","TX","77026"
"96600259","3116 STATION STREET","AUSTIN","TX","78756"
"96600260","3303 COOLIDGE STREET","ORLANDO","FL","32801"
"96600261","1307 FIDLER DRIVE","SAN ANTONIO","TX","78240"
"96600262","829 REDBUD DRIVE","REGO PARK QUEENS","NY","11734"
"96600263","2208 CHESTNUT STREET","CLEARWATER","FL","34623"
"96600264","1824 GROVE STREET","FARMINGDALE","NY","11735"
"96600265","2715 QUINCY STREET","PHILADELPHIA","PA","19103"
"96600266","3152 CANDLELIGHT DRIVE","TOMBALL","TX","77375"
"96600267","4742 WHITETAIL LANE","DALLAS","TX","75234"
"96600268","742 BEN STREET","PLATTSBURGH","NY","12901"
"96600269","2316 BADGER POND LANE","FEATHER SOUND","FL","34622"
"96600270","483 VALLEY DRIVE","PHILADELPHIA","PA","19108"
"96600271","1015 SPRING AVENUE","LANSDALE","PA","19446"
"96600272","1540 GIRAFFE HILL DRIVE","FRISCO","TX","75034"
"96600273","3238 WHITE AVENUE","CORPUS CHRISTI","TX","78476"
"96600274","19 BAGWELL AVENUE","HOMOSASSA SPRINGS","FL","34448"
"96600275","277 DEERCOVE DRIVE","DALLAS","TX","75247"
"96600276","3841 OAKDALE AVENUE","BOWLING GREEN","FL","33834"
"96600277","4570 FORMULA LANE","IRVING","TX","75060"
"96600278","2559 LONG STREET","OKLAWAHA","FL","32679"
"96600279","1185 JARVIS STREET","BUFFALO","NY","14202"
"96600280","2214 JARVIS STREET","BUFFALO","NY","14202"
"96600281","3681 WOODROW WAY","HOUSTON","TX","77006"
"96600282","3187 BAGWELL AVENUE","HOMOSASSA SPRINGS","FL","34448"
"96600283","2340 GORE STREET","HOUSTON","TX","77063"
"96600284","776 CHERRY RIDGE DRIVE","ROCHESTER","NY","14604"
"96600285","3393 RINEHART ROAD","MIAMI","FL","33179"
"96600286","1179 WORTHINGTON DRIVE","IRVING","TX","75038"
"96600287","2628 OAK DRIVE","SARATOGA SPRINGS","NY","12866"
"96600288","4949 GROVE STREET","NEW YORK","NY","10017"
"96600289","1909 LINDEN AVENUE","ORLANDO","FL","32809"
"96600290","992 FANCHER DRIVE","DALLAS","TX","75219"
"96600291","4810 LINCOLN DRIVE","EAST PETERSBURG","PA","17520"
"96600292","1438 OAK DRIVE","ALBANY","NY","12207"
"96600293","742 TETRICK ROAD","CYPRESS GARDENS","FL","33884"
"96600294","2780 PLATINUM DRIVE","PITTSBURGH","PA","15219"
"96600295","292 CHURCH STREET","NEW YORK","NY","10011"
"96600296","3666 CHAPEL STREET","HOUSTON","TX","77032"
"96600297","1720 TAYLOR STREET","YONKERS","NY","10701"
"96600298","1217 HILL HAVEN DRIVE","MEXIA","TX","76667"
"96600299","4159 GLEN FALLS ROAD","PHILADELPHIA","PA","19104"
"96600300","2288 LUNETTA STREET","SARASOTA","FL","34232"
"96600301","86 WEST FORK DRIVE","FORT LAUDERDALE","FL","33308"
"96600302","19 CONFERENCE CENTER WAY","MCKEANSBURG","PA","17960"
"96600303","3728 SWICK HILL STREET","HOUSTON","TX","77006"
"96600304","3112 TRAVIS STREET","HIALEAH","FL","33012"
"96600305","3343 WALDECK STREET","FORT WORTH","TX","76105"
"96600306","4163 CAMDEN PLACE","POUGHKEEPSIE","NY","12601"
"96600307","3101 WORTHINGTON DRIVE","RED OAK","TX","75154"
"96600308","4850 LYNN OGDEN LANE","FANNETT","TX","77960"
"96600309","4216 MONROE AVENUE","TAMPA","FL","33610"
"96600310","2587 WINES LANE","HOUSTON","TX","77002"
"96600311","3838 BRANNON AVENUE","JACKSONVILLE","FL","32202"
"96600312","20 FLORENCE STREET","DENISON","TX","75020"
"96600313","2016 BARNES STREET","ALTAMONTE SPRINGS","FL","32701"
"96600314","3729 TURKEY PEN ROAD","HUNTINGTON","NY","11743"
"96600315","3594 STEVE HUNT ROAD","MIAMI","FL","33179"
"96600316","1031 HAMILTON DRIVE","HITCHCOCK","TX","77563"
"96600317","2773 HOLT STREET","LAKE WORTH","FL","33463"
"96600318","1613 COAL STREET","SEVEN SPRINGS","PA","15557"
"96600319","3571 HALL PLACE","BLOOMING GROVE","TX","76626"
"96600320","1479 POWDER HOUSE ROAD","DELRAY BEACH","FL","33484"
"96600321","358 MY DRIVE","NEW YORK","NY","10004"
"96600322","4279 GEORGE STREET","BRONSON","FL","32621"
"96600323","4401 ELM DRIVE","NEW YORK","NY","10022"
"96600324","2117 SPIRIT DRIVE","POMONA PARK","FL","32081"
"96600325","4418 FREDERICK STREET","MIDLAND","TX","79701"
"96600326","973 SPRUCE DRIVE","MCMURRAY","PA","15317"
"96600327","4664 PHEASANT RIDGE ROAD","QUAKERTOWN","PA","18951"
"96600328","4306 SHINN STREET","NEW YORK","NY","10007"
"96600329","3552 BASTIN DRIVE","ALLENTOWN","PA","18109"
"96600330","4643 GROVE STREET","WESTBURY","NY","11590"
"96600331","735 ELM DRIVE","NEW YORK","NY","10013"
"96600332","2732 BERKLEY STREET","FORT WASHINGTON","PA","19034"
"96600333","1652 LINCOLN DRIVE","HARRISBURG","PA","17109"
"96600334","1714 DRAINER AVENUE","PENSACOLA","FL","32534"
"96600335","2158 POPLAR LANE","HIALEAH","FL","33012"
"96600336","2439 LUCKY DUCK DRIVE","PITTSBURGH","PA","15213"
"96600337","3421 ROCKY ROAD","PHILADELPHIA","PA","19135"
"96600338","1671 COLLINS STREET","ERIE","PA","16501"
"96600339","2450 WASHINGTON STREET","BEEVILLE","TX","78102"
"96600340","85 WALT NUZUM FARM ROAD","LIVONIA","NY","14487"
"96600341","4137 WESTWOOD AVENUE","NEW YORK","NY","10013"
"96600342","2856 CLIFFSIDE DRIVE","ONEONTA","NY","13820"
"96600343","3304 GODFREY ROAD","NEW YORK","NY","10036"
"96600344","1021 HEAVNER COURT","NEW YORK","NY","10011"
"96600345","3159 RIDENOUR STREET","BOCA RATON","FL","33487"
"96600346","3520 MORNINGVIEW LANE","NEW YORK","NY","10013"
"96600347","4358 CHARLA LANE","GRAND PRAIRIE","TX","75051"
"96600348","4098 COUNTY LINE ROAD","NEW PORT RICHEY","FL","34652"
"96600349","208 COAL STREET","SEVEN SPRINGS","PA","15557"
"96600350","3523 RIDENOUR STREET","MIRAMAR","FL","33025"
"96600351","1858 BOUNDARY STREET","JACKSONVILLE","FL","32216"
"96600352","224 PINE STREET","PITTSBURGH","PA","15205"
"96600353","838 HARLEY BROOK LANE","JOHNSTOWN","PA","15904"
"96600354","989 GIRAFFE HILL DRIVE","DALLAS","TX","75287"
"96600355","4205 GNATTY CREEK ROAD","GARDEN CITY","NY","11530"
"96600356","2468 CHANDLER HOLLOW ROAD","PORTLAND","PA","97205"
"96600357","1335 SUSSEX COURT","WACO","TX","76706"
"96600358","4839 NUZUM COURT","BUFFALO","NY","14202"
"96600359","4744 FILBERT STREET","PHILADELPHIA","PA","19107"
"96600360","3047 STUTLER LANE","ERIE","PA","16510"
"96600361","4923 MICHIGAN AVENUE","NEW CASTLE","PA","16101"
"96600362","1181 BEEGHLEY STREET","GLEN ROSE","TX","76043"
"96600363","4846 THRASH TRAIL","LONGVIEW","TX","75601"
"96600364","4061 ROSEMONT AVENUE","ORLANDO","FL","32810"
"96600365","3654 LIBERTY STREET","DALLAS","TX","75204"
"96600366","66 CHERRY TREE DRIVE","JACKSONVILLE","FL","32202"
"96600367","4493 CIRCLE DRIVE","HOUSTON","TX","77032"
"96600368","464 WOODSIDE CIRCLE","FORT WALTON BEACH","FL","32548"
"96600369","4102 JAMES STREET","HOLLEY","NY","14470"
"96600370","1004 HIGH MEADOW LANE","MANSFIELD","PA","16933"
"96600371","1215 WALT NUZUM FARM ROAD","EAST ROCHESTER","NY","14445"
"96600372","450 ORPHAN ROAD","CHEEKTOWAGA","NY","14227"
"96600373","574 WOODSIDE CIRCLE","PANAMA CITY","FL","32401"
"96600374","4568 BENEDUM DRIVE","LAKE KATRINE","NY","12401"
"96600375","4373 CONFERENCE CENTER WAY","SCRANTON","PA","18503"
"96600376","3233 DRAINER AVENUE","PENSACOLA","FL","32507"
"96600377","2391 FORMULA LANE","DALLAS","TX","75240"
"96600378","1120 SCENICVIEW DRIVE","LONGVIEW","TX","75601"
"96600379","1987 BAKER AVENUE","DALLAS","TX","75234"
"96600380","2052 FARLAND AVENUE","VICTORIA","TX","77901"
"96600381","4183 FRANK AVENUE","PITTSBURGH","PA","15215"
"96600382","1534 CHURCH STREET","BROOKLYN","NY","11227"
"96600383","2564 GOLDEN RIDGE ROAD","SCHENECTADY","NY","12303"
"96600384","4728 SPRUCE DRIVE","PITTSBURGH","PA","15201"
"96600385","2564 MEDICAL CENTER DRIVE","VENICE","FL","34285"
"96600386","4578 COLLINS STREET","TAMPA","FL","33610"
"96600387","2489 FANNIE STREET","HOUSTON","TX","77095"
"96600388","1513 WOODLAND TERRACE","NEW YORK","NY","10013"
"96600389","36 STOUT STREET","HARRISBURG","PA","17101"
"96600390","757 TYLER AVENUE","FT LAUDERDALE","FL","33311"
"96600391","3210 CAMERON ROAD","MAYVILLE","NY","14757"
"96600392","3305 AARON SMITH DRIVE","HARRISBURG","PA","17116"
"96600393","2640 ANMOORE ROAD","BRONX","NY","10463"
"96600394","473 ELKVIEW DRIVE","PORT ST LUCIE","FL","33452"
"96600395","4635 BOUNDARY STREET","JACKSONVILLE","FL","32202"
"96600396","2716 WORTHINGTON DRIVE","PLANO","TX","75074"
"96600397","2199 WEST VIRGINIA AVENUE","ALBANY","NY","12207"
"96600398","3496 TYLER AVENUE","MIAMI","FL","33179"
"96600399","2757 SCOTT STREET","NEWBURGH","NY","12550"
"96600400","4485 WESTWOOD AVENUE","DEERPARK","NY","11729"
"96600401","2183 OAK DRIVE","NEWCOMB","NY","12852"
"96600402","4944 GOLDEN STREET","MIAMI","FL","33179"
"96600403","1776 WARD ROAD","EL PASO","TX","79906"
"96600404","728 FRANKLEE LANE","NEWARK","PA","19714"
"96600405","750 PRIDE AVENUE","BROOKLYN","NY","11212"
"96600406","345 TIPPLE ROAD","SOUDERTON","PA","18964"
"96600407","4317 QUINCY STREET","PORTLAND","PA","97205"
"96600408","1384 MORRIS STREET","SAN ANTONIO","TX","78205"
"96600409","3094 DUNCAN AVENUE","NEW YORK","NY","10016"
"96600410","3252 FARLAND AVENUE","SAN ANTONIO","TX","78205"
"96600411","1832 ANGUS ROAD","NEW YORK","NY","10013"
"96600412","3470 SHINN AVENUE","PITTSBURGH","PA","15222"
"96600413","4522 STONEY LANE","DALLAS","TX","75240"
"96600414","4759 SUNDOWN LANE","AUSTIN","TX","78741"
"96600415","3703 CHESTNUT STREET","CLEARWATER","FL","34623"
"96600416","3136 HAMILTON DRIVE","TEXAS CITY","TX","77591"
"96600417","4108 EVERETTE ALLEY","FT LAUDERDALE","FL","33311"
"96600418","3823 BAKER AVENUE","FORT WORTH","TX","76102"
"96600419","2437 SMALL STREET","NEW YORK","NY","10036"
"96600420","2974 TAYLOR STREET","NEW YORK","NY","10004"
"96600421","1806 AGRICULTURE LANE","MIAMI","FL","33144"
"96600422","1223 SETH STREET","ABILENE","TX","79605"
"96600423","4446 LYNDON STREET","NORTHAMPTON","PA","18067"
"96600424","3916 VALLEY LANE","AUSTIN","TX","78723"
"96600425","2080 JARVIS STREET","BUFFALO","NY","14214"
"96600426","423 LOST CREEK ROAD","WAYNE","PA","19087"
"96600427","4691 FRANKLEE LANE","FORT WASHINGTON","PA","19034"
"96600428","3978 OLD DEAR LANE","NORTH CLOVE","NY","12570"
"96600429","1293 CLAIR STREET","WACO","TX","76701"
"96600430","3810 WHITETAIL LANE","DALLAS","TX","75244"
"96600431","1665 BICETOWN ROAD","NEW YORK","NY","10007"
"96600432","1781 PICKENS WAY","LONGVIEW","TX","75601"
"96600433","592 SYCAMORE CIRCLE","DALLAS","TX","75247"
"96600434","2905 VILLAGE VIEW DRIVE","FORT MYERS","FL","33901"
"96600435","768 BEN STREET","ALBANY","NY","12207"
"96600436","3794 MARION DRIVE","TAMPA","FL","33624"
"96600437","4924 COLONIAL DRIVE","EL CAMPO","TX","77437"
"96600438","97 CLARK STREET","LEVITTOWN","NY","11756"
"96600439","1681 MARYLAND AVENUE","FEATHER SOUND","FL","34622"
"96600440","35 CANDLELIGHT DRIVE","TOMBALL","TX","77337"
"96600441","505 BIRD SPRING LANE","SUGAR LAND","TX","77487"
"96600442","1435 STUTLER LANE","ERIE","PA","16501"
"96600443","587 BIRCH  STREET","EL PASO","TX","79901"
"96600444","4284 KENWOOD PLACE","POMPANO BEACH","FL","33064"
"96600445","4537 LYNN OGDEN LANE","GALVESTON","TX","77551"
"96600446","4223 JARVISVILLE ROAD","HICKSVILLE","NY","11801"
"96600447","4220 FIELDCREST ROAD","BRENTWOOD","NY","11717"
"96600448","2419 SOUTH STREET","MIDLAND","TX","79703"
"96600449","3696 SOUTHERN STREET","WESTBURY","NY","11590"
"96600450","1899 SCENICVIEW DRIVE","BIG SPRING","TX","79720"
"96600451","4933 WALDECK STREET","WEDGWOOD","TX","76133"
"96600452","1694 GAMBLER LANE","DEER PARK","TX","77536"
"96600453","2253 TETRICK ROAD","TAMPA","FL","33634"
"96600454","2598 WASHINGTON STREET","CORPUS CHRISTI","TX","78476"
"96600455","60 DANCING DOVE LANE","WHITE PLAINS","NY","10606"
"96600456","1937 MARION DRIVE","POLK CITY","FL","33868"
"96600457","3320 HANOVER STREET","NEW YORK","NY","10016"
"96600458","1507 COLLINS STREET","STATE COLLEGE","PA","16801"
"96600459","367 MARSHVILLE ROAD","SCOTCHTOWN","NY","10940"
"96600460","683 WOODSIDE CIRCLE","PANAMA CITY","FL","32401"
"96600461","1783 FANNIE STREET","HOUSTON","TX","77002"
"96600462","2148 FANNIE STREET","BRYAN","TX","77808"
"96600463","4914 QUINCY STREET","PHILADELPHIA","PA","19108"
"96600464","1096 JAMES STREET","ROCHESTER","NY","14608"
"96600465","4734 BROOKVIEW DRIVE","BEAUMONT","TX","77701"
"96600466","86 MICHAEL STREET","HOUSTON","TX","77002"
"96600467","1048 DEANS LANE","MANHATTAN","NY","10016"
"96600468","3085 HILLTOP DRIVE","FLETCHER CARTER","TX","79373"
"96600469","2266 CARRIAGE LANE","PITTSTON","PA","18640"
"96600470","738 CAROLYNS CIRCLE","IRVING","TX","75038"
"96600471","1138 WASHINGTON STREET","CORPUS CHRISTI","TX","78476"
"96600472","23 MULBERRY STREET","NACOGDOCHES","TX","75964"
"96600473","4902 NUZUM COURT","BUFFALO","NY","14214"
"96600474","3123 CONFEDERATE DRIVE","SYRACUSE","NY","13221"
"96600475","3711 SMITHFIELD AVENUE","AMARILLO","TX","79101"
"96600476","4295 STAR TREK DRIVE","BLOUNTSTOWN","FL","32424"
"96600477","3269 ADAMSVILLE ROAD","BROWNSVILLE","TX","78520"
"96600478","2256 POE ROAD","PINEHURST","TX","77362"
"96600479","4640 MILL STREET","TAMPA","FL","33602"
"96600480","4141 BRENTWOOD DRIVE","AUSTIN","TX","78729"
"96600481","2146 QUINCY STREET","PHILADELPHIA","PA","19103"
"96600482","3159 CIRCLE DRIVE","HOUSTON","TX","77002"
"96600483","2566 BRIERCLIFF ROAD","NEW YORK","NY","10013"
"96600484","1394 FRANKLIN AVENUE","LAKE HELEN","FL","32744"
"96600485","2689 TETRICK ROAD","AVON PARK","FL","33825"
"96600486","3802 CONFERENCE CENTER WAY","MCADOO","PA","18237"
"96600487","1420 STONEYBROOK ROAD","COCOA","FL","32922"
"96600488","2626 FARLAND AVENUE","PIPE CREEK","TX","78063"
"96600489","3146 WOODSIDE CIRCLE","YOUNGSTOWN","FL","32466"
"96600490","1919 LAMBERTS BRANCH ROAD","FORT LAUDERDALE","FL","33301"
"96600491","1692 AMERICAN DRIVE","HOLLEY NAVARRE","FL","32569"
"96600492","2526 LYNDON STREET","NORTHAMPTON","PA","18067"
"96600493","740 WILLIS AVENUE","DELTONA","FL","32738"
"96600494","4804 REDBUD DRIVE","NEW YORK","NY","10013"
"96600495","2476 BASTIN DRIVE","PORTLAND","PA","97205"
"96600496","1093 DEERCOVE DRIVE","PHILADELPHIA","PA","19104"
"96600497","388 BUBBY DRIVE","AUSTIN","TX","78752"
"96600498","4305 BOONE STREET","CORPUS CHRISTI","TX","78476"
"96600499","500 TAYLOR STREET","HARRISON","NY","10528"
"96600500","2908 ROANE AVENUE","HOUSTON","TX","77062"
"96600501","2099 BADGER POND LANE","PITTSBURGH","PA","15219"
"96600502","2658 WATSON LANE","FRIO CANYON","TX","78873"
"96600503","3107 AARON SMITH DRIVE","HARRISBURG","PA","17102"
"96600504","3704 COUNTY LINE ROAD","POLK CITY","FL","33868"
"96600505","4130 STONEY LONESOME ROAD","POTTSVILLE","PA","17901"
"96600506","783 WHISPERING PINES CIRCLE","MC KINNEY","TX","75069"
"96600507","3647 ASH STREET","GRAND PRAIRIE","TX","75051"
"96600508","1210 CLAIR STREET","HEWITT","TX","76643"
"96600509","211 BEN STREET","TROY","NY","12180"
"96600510","3388 MCDONALD AVENUE","ORLANDO","FL","32801"
"96600511","4417 BAGWELL AVENUE","OCALA","FL","32671"
"96600512","3740 BERNARDO STREET","TAMPA","FL","33610"
"96600513","1517 RINEHART ROAD","MIAMI","FL","33128"
"96600514","719 WYATT STREET","MIAMI","FL","33131"
"96600515","1258 DUNCAN AVENUE","WHITESTONE","NY","11357"
"96600516","557 LINDEN AVENUE","ORLANDO","FL","32805"
"96600517","3830 LUCKY DUCK DRIVE","SEWICKLEY","PA","15143"
"96600518","1531 JARVISVILLE ROAD","NEW YORK","NY","10011"
"96600519","591 FRANKLEE LANE","WAYNE","PA","19087"
"96600520","4712 STUART STREET","INDIANA","PA","15701"
"96600521","995 HARDESTY STREET","EAST GLENVILLE","NY","12302"
"96600522","2122 GEORGE STREET","BROOKSVILLE","FL","34610"
"96600523","3830 ROSEWOOD LANE","NEW YORK","NY","10019"
"96600524","1565 TURKEY PEN ROAD","NEW YORK","NY","10016"
"96600525","3780 WOODROW WAY","NACOGDOCHES","TX","75964"
"96600526","394 SUSSEX COURT","KILLEEN","TX","76541"
"96600527","1224 BARNES STREET","KISSIMMEE","FL","34744"
"96600528","3130 REDBUD DRIVE","NEW YORK","NY","10013"
"96600529","2280 DEANS LANE","BEDFORD VILLAGE","NY","10506"
"96600530","4241 LINDEN AVENUE","ORLANDO","FL","32805"
"96600531","2732 ANGUS ROAD","NEW YORK","NY","10004"
"96600532","1960 BICETOWN ROAD","NEW YORK","NY","10022"
"96600533","4020 VALLEY LANE","AUSTIN","TX","78664"
"96600534","1514 TYLER AVENUE","MIAMI","FL","33012"
"96600535","2638 MARIGOLD LANE","MIAMI","FL","33131"
"96600536","164 SPADAFORE DRIVE","BREEZEWOOD","PA","15533"
"96600537","3910 SPADAFORE DRIVE","HOOVERSVILLE","PA","15936"
"96600538","2305 SMITHFIELD AVENUE","LUBBOCK","TX","79401"
"96600539","3740 WEST VIRGINIA AVENUE","AMSTERDAM","NY","12010"
"96600540","4939 LINDEN AVENUE","ORLANDO","FL","32805"
"96600541","440 CANTEBURY DRIVE","NEW YORK","NY","10007"
"96600542","4238 CONFEDERATE DRIVE","BALDWINSVILLE","NY","13027"
"96600543","1005 GOLDEN STREET","NORTH DADE","FL","33180"
"96600544","2511 SPRUCE DRIVE","BEAVER FALLS","PA","15010"
"96600545","4617 SARDIS STA","GRAND PRAIRIE","TX","75051"
"96600546","247 NUZUM COURT","BUFFALO","NY","14202"
"96600547","782 LAKE FOREST DRIVE","LONG ISLAND CITY","NY","11101"
"96600548","1135 MOUNT TABOR","NEW YORK","NY","10007"
"96600549","3688 FRANK AVENUE","PITTSBURGH","PA","15212"
"96600550","623 CRESTVIEW TERRACE","SAN ANTONIO","TX","78205"
"96600551","2252 BROOKE STREET","HOUSTON","TX","77022"
"96600552","2107 STOUT STREET","CARLISLE","PA","17013"
"96600553","3304 RIDENOUR STREET","MIAMI","FL","33131"
"96600554","1733 DUNCAN AVENUE","NEW YORK","NY","10007"
"96600555","4873 MARGARET STREET","HOUSTON","TX","77587"
"96600556","3760 ARBUTUS DRIVE","FORT LAUDERDALE","FL","33311"
"96600557","4549 CLAIR STREET","KILLEEN","TX","76543"
"96600558","2453 LEO STREET","PITTSBURGH","PA","15212"
"96600559","3376 CHERRY RIDGE DRIVE","ROCHESTER","NY","14604"
"96600560","841 HOLT STREET","WEST PALM BEACH","FL","33410"
"96600561","2839 FRESHOUR CIRCLE","SAN ANTONIO","TX","78205"
"96600562","4636 WILSON AVENUE","PLANO","TX","75074"
"96600563","1512 BURWELL HEIGHTS ROAD","BEAUMONT","TX","77701"
"96600564","3304 CHARLA LANE","ROCKWALL","TX","75087"
"96600565","2333 AARON SMITH DRIVE","HARRISBURG","PA","17116"
"96600566","3084 PARRISH AVENUE","SAN ANTONIO","TX","78217"
"96600567","18 SPRUCE DRIVE","PITTSBURGH","PA","15212"
"96600568","3169 NEW YORK AVENUE","FORT WORTH","TX","76110"
"96600569","807 JEROME AVENUE","MCALLEN","TX","78501"
"96600570","293 WEST FORK DRIVE","FORT LAUDERDALE","FL","33301"
"96600571","3800 BADGER POND LANE","BRIDGEVILLE","PA","15017"
"96600572","4070 HEMLOCK LANE","BROWNSVILLE","TX","78520"
"96600573","2967 BOTTOM LANE","BUFFALO","NY","14214"
"96600574","3194 MARYLAND AVENUE","FEATHER SOUND","FL","34622"
"96600575","4303 WALT NUZUM FARM ROAD","COHOCTON","NY","14826"
"96600576","1767 HILLTOP DRIVE","AMARILLO","TX","79109"
"96600577","2572 SUNBURST DRIVE","GOLDEN GATE (COLLIER)","FL","33999"
"96600578","151 HORSESHOE LANE","NEWARK","PA","19714"
"96600579","370 BIRD SPRING LANE","SUGAR LAND","TX","77478"
"96600580","2406 PINE STREET","PITTSBURGH","PA","15222"
"96600581","2110 FRESHOUR CIRCLE","SAN ANTONIO","TX","78212"
"96600582","2304 MOORE AVENUE","KELLER","TX","76248"
"96600583","4728 CANDLELIGHT DRIVE","STAFFORD","TX","77477"
"96600584","4749 VIRGIL STREET","MARIANNA","FL","32446"
"96600585","1096 JAMES STREET","WEBSTER","NY","14580"
"96600586","2705 FRANKLIN AVENUE","VICTORIA","TX","77901"
"96600587","188 GEORGE STREET","GAINESVILLE","FL","32601"
"96600588","3893 WARD ROAD","WHITE PLAINS","NY","10601"
"96600589","4397 PLATINUM DRIVE","BRIDGEVILLE","PA","15017"
"96600590","2588 BARNES STREET","WINTER PARK","FL","32789"
"96600591","3629 OLIVER STREET","PLANO","TX","75074"
"96600592","2796 LYNDON STREET","NORRISTOWN","PA","19403"
"96600593","2949 MULBERRY STREET","CONROE","TX","77301"
"96600594","137 STONE LANE","WEST BRUNSWICK TWP","PA","19549"
"96600595","2819 WEST FORK DRIVE","FORT LAUDERDALE","FL","33308"
"96600596","4555 OLD DEAR LANE","PEEKSKILL","NY","10566"
"96600597","1528 WINES LANE","HOUSTON","TX","77099"
"96600598","418 JAMES STREET","ROCHESTER","NY","14613"
"96600599","3001 TRAILS END ROAD","FORT LAUDERDALE","FL","33301"
"96600600","922 KENWOOD PLACE","MIAMI","FL","33176"
"96600601","2141 ROMINES MILL ROAD","DALLAS","TX","75202"
"96600602","3263 COAL STREET","JOHNSTOWN","PA","15904"
"96600603","3638 COAL ROAD","MILTON","PA","17847"
"96600604","3 COLLINS STREET","TAMPA","FL","33619"
"96600605","4663 HINKLE DEEGAN LAKE ROAD","SYRACUSE","NY","13224"
"96600606","2101 FLORENCE STREET","LONGVIEW","TX","75604"
"96600607","3956 LONG STREET","BROOKSVILLE","FL","34610"
"96600608","4526 SMITHFIELD AVENUE","LUBBOCK","TX","79401"
"96600609","3585 ARBUTUS DRIVE","FT LAUDERDALE","FL","33311"
"96600610","421 CANDLELIGHT DRIVE","HOUSTON","TX","77053"
"96600611","3947 BROOKVIEW DRIVE","BEAUMONT","TX","77701"
"96600612","4186 JACOBS STREET","PITTSBURGH","PA","15237"
"96600613","1921 GAMBLER LANE","HOUSTON","TX","77038"
"96600614","4083 BAGWELL AVENUE","GAINESVILLE","FL","32601"
"96600615","2845 ADAMS DRIVE","BAY CITY","TX","77414"
"96600616","3876 LIBERTY STREET","DALLAS","TX","75201"
"96600617","3138 STUTLER LANE","ERIE","PA","16505"
"96600618","1770 PRIDE AVENUE","MINEOLA","NY","11501"
"96600619","1495 HEAVENS WAY","TAMPA","FL","33610"
"96600620","4590 SHORT STREET","GEORGETOWN","TX","78626"
"96600621","4314 BEECHWOOD DRIVE","PITTSBURGH","PA","15219"
"96600622","2773 CANDLELIGHT DRIVE","KATY","TX","77494"
"96600623","4530 GOLDEN STREET","MIAMI SPRINGS","FL","33166"
"96600624","4059 JEROME AVENUE","HARLINGEN","TX","78550"
"96600625","3263 FRANKLIN AVENUE","PORT O CONNOR","TX","77982"
"96600626","1809 MAPLEVIEW DRIVE","TAMPA","FL","33619"
"96600627","4226 CLAIR STREET","WACO","TX","76706"
"96600628","2938 WHITE AVENUE","CORPUS CHRISTI","TX","78476"
"96600629","3747 BRANNON AVENUE","JACKSONVILLE","FL","32208"
"96600630","2204 LAKE FOREST DRIVE","HARRISON","NY","10528"
"96600631","3091 ALFRED DRIVE","BROOKLYN","NY","11234"
"96600632","2083 CITYVIEW DRIVE","EXTON","PA","19341"
"96600633","1940 CUSTER STREET","ERIE","PA","16501"
"96600634","4081 LONGVIEW AVENUE","FOREST HILLS","NY","11375"
"96600635","1254 TERRY LANE","ORLANDO","FL","32822"
"96600636","4695 DEANS LANE","PLEASANTVILLE","NY","10570"
"96600637","449 VALLEY DRIVE","PHILADELPHIA","PA","19108"
"96600638","3672 CAROLYNS CIRCLE","DALLAS","TX","75247"
"96600639","4272 MARYLAND AVENUE","BAYOU","FL","34665"
"96600640","399 LINCOLN DRIVE","HUMMELSTOWN","PA","17036"
"96600641","1589 SARDIS STA","DALLAS","TX","75207"
"96600642","2842 GOLDEN STREET","MIAMI","FL","33179"
"96600643","3720 TODDS LANE","SAN ANTONIO","TX","78229"
"96600644","4796 CARRIAGE LANE","WILKES BARRE","PA","18701"
"96600645","3833 SCOTT STREET","FALLSBURGE","NY","12733"
"96600646","4419 SIMONS HOLLOW ROAD","LOGANTON","PA","17747"
"96600647","2710 MEDICAL CENTER DRIVE","FORT MYERS","FL","33912"
"96600648","203 POCO MAS DRIVE","FRISCO","TX","75034"
"96600649","2714 ALEXANDER DRIVE","DENTON","TX","76201"
"96600650","3811 SAINT MARYS AVENUE","BLACK RIVER","NY","13612"
"96600651","2790 MULBERRY STREET","NACOGDOCHES","TX","75961"
"96600652","4659 AARON SMITH DRIVE","STRASBURG","PA","17579"
"96600653","2611 GRAND AVENUE","ORLANDO","FL","32809"
"96600654","4000 HILL HAVEN DRIVE","WACO","TX","76701"
"96600655","2220 ELM DRIVE","NEW YORK","NY","10021"
"96600656","3109 NEW YORK AVENUE","FORT WORTH","TX","76110"
"96600657","2592 CINNAMON LANE","SAN ANTONIO","TX","78205"
"96600658","3284 CLINTON STREET","PHILADELPHIA","PA","19103"
"96600659","839 OLEN THOMAS DRIVE","VALLEY VIEW","TX","76272"
"96600660","3967 MOUNT TABOR","KINGSTON","NY","12401"
"96600661","838 VALLEY DRIVE","FORT WASHINGTON","PA","19034"
"96600662","2705 CUSTER STREET","ALTOONA","PA","16601"
"96600663","741 WALDECK STREET","ARLINGTON","TX","75760"
"96600664","4424 BARNES STREET","LONGWOOD","FL","32750"
"96600665","2094 MARGARET STREET","HOUSTON","TX","77007"
"96600666","3559 PHEASANT RIDGE ROAD","PLYMOUTH MEETING","PA","19462"
"96600667","4184 CHARLA LANE","RICHARDSON","TX","75081"
"96600668","1106 GLENVIEW DRIVE","CORPUS CHRISTI","TX","78476"
"96600669","4703 OLIVER STREET","ACTON","TX","76050"
"96600670","3348 BEECHWOOD DRIVE","BRADDOCK","PA","15104"
"96600671","108 LOSH LANE","PITTSBURGH","PA","15201"
"96600672","4505 BROOKVIEW DRIVE","BEAUMONT","TX","77701"
"96600673","895 SIMPSON AVENUE","JONESTOWN (LEBANON)","PA","17038"
"96600674","221 HARLEY BROOK LANE","JOHNSTOWN","PA","15904"
"96600675","2711 ANMOORE ROAD","BROOKLYN","NY","11206"
"96600676","3876 GENEVA STREET","BELLEROSE","NY","11426"
"96600677","284 MORRIS STREET","SAN ANTONIO","TX","78258"
"96600678","4722 CHANDLER HOLLOW ROAD","CRAFTON","PA","15205"
"96600679","3696 ARROWOOD DRIVE","JACKSONVILLE","FL","32258"
"96600680","4221 TURKEY PEN ROAD","HUNTINGTON","NY","11743"
"96600681","61 TIPPLE ROAD","PHILADELPHIA","PA","19143"
"96600682","1954 FRANKLIN AVENUE","CORPUS CHRISTI","TX","78401"
"96600683","2380 VALLEY DRIVE","NEWARK","PA","19714"
"96600684","3692 FOLEY STREET","FORT LAUDERDALE","FL","33301"
"96600685","4089 WEST VIRGINIA AVENUE","ALBANY","NY","12207"
"96600686","302 GERALDINE LANE","NEW YORK","NY","10013"
"96600687","4999 PATTERSON ROAD","BRONX","NY","10464"
"96600688","4479 COLONIAL DRIVE","HOUSTON","TX","77006"
"96600689","2821 POCO MAS DRIVE","MC KINNEY","TX","75069"
"96600690","4008 BARNES STREET","SANFORD","FL","32771"
"96600691","2076 JODY ROAD","FORT WASHINGTON","PA","19034"
"96600692","3113 BIRD SPRING LANE","HOUSTON","TX","77077"
"96600693","4313 STOUT STREET","GETTYSBURG","PA","17325"
"96600694","195 JONES STREET","ARLINGTON","TX","76011"
"96600695","58 HIGH MEADOW LANE","LOYALSOCK","PA","17754"
"96600696","4494 MULBERRY LANE","BOCA RATON","FL","33434"
"96600697","1111 BROOKE STREET","SUGAR LAND","TX","77478"
"96600698","1909 ASHTON LANE","AUSTIN","TX","78701"
"96600699","3274 OAKWOOD AVENUE","MANHATTAN","NY","10016"
"96600700","3193 CANDLELIGHT DRIVE","LA PORTE","TX","77571"
"96600701","3617 POCO MAS DRIVE","DALLAS","TX","75238"
"96600702","3458 CINNAMON LANE","SAN ANTONIO","TX","78217"
"96600703","3638 HIDDENVIEW DRIVE","PHILADELPHIA","PA","19103"
"96600704","3083 WALT NUZUM FARM ROAD","CANANDAIGUA","NY","14424"
"96600705","2825 TAYLOR STREET","MOUNT VERNON","NY","10550"
"96600706","1846 HORSESHOE LANE","PHILADELPHIA","PA","19108"
"96600707","290 RHAPSODY STREET","GAINESVILLE","FL","32601"
"96600708","1159 FARLAND AVENUE","VICTORIA","TX","77901"
"96600709","796 OAKDALE AVENUE","BARTOW","FL","33830"
"96600710","2118 SHINN STREET","NEW YORK","NY","10036"
"96600711","2111 TRAVIS STREET","LAKE WORTH","FL","33463"
"96600712","575 LAKE FOREST DRIVE","NEW ROCHELLE","NY","10801"
"96600713","290 NORMA AVENUE","WILLIS","TX","77378"
"96600714","3714 BEECHWOOD DRIVE","PITTSBURGH","PA","15212"
"96600715","2390 FLORENCE STREET","ARLINGTON","TX","76011"
"96600716","2404 FORMULA LANE","DALLAS","TX","75201"
"96600717","1305 MICHIGAN AVENUE","MONESSEN","PA","15062"
"96600718","4008 WINES LANE","HOUSTON","TX","77032"
"96600719","1332 ARBUTUS DRIVE","FORT LAUDERDALE","FL","33301"
"96600720","2095 ERSEL STREET","DALLAS","TX","75209"
"96600721","4177 GORE STREET","HOUSTON","TX","77002"
"96600722","1921 WILKINSON COURT","NORTH NAPLES","FL","33963"
"96600723","293 ROSEWOOD LANE","NEW YORK","NY","10004"
"96600724","12 FORMULA LANE","FARMERS BRANCH","TX","75234"
"96600725","3560 WHISPERING PINES CIRCLE","DALLAS","TX","75240"
"96600726","3215 GRAND AVENUE","WINTER PARK","FL","32789"
"96600727","805 OAKRIDGE LANE","DALLAS","TX","75207"
"96600728","4893 OAK DRIVE","ALBANY","NY","12207"
"96600729","3510 POINTE LANE","HOLLYWOOD","FL","33023"
"96600730","3251 TIPPLE ROAD","AMBLER","PA","19002"
"96600731","3474 MARSHVILLE ROAD","WEST NYACK","NY","10994"
"96600732","3536 EVERETTE ALLEY","FORT LAUDERDALE","FL","33301"
"96600733","3977 POE ROAD","HOUSTON","TX","77032"
"96600734","4284 BOTTOM LANE","BUFFALO","NY","14220"
"96600735","170 HAMILTON DRIVE","TEXAS CITY","TX","77591"
"96600736","4104 ANMOORE ROAD","NEW YORK","NY","10005"
"96600737","1253 SHINN STREET","NEW YORK","NY","10004"
"96600738","3922 GOLDEN RIDGE ROAD","ALBANY","NY","12207"
"96600739","1661 WILLIS AVENUE","PORT ORANGE","FL","32019"
"96600740","3650 PRIDE AVENUE","BRONX","NY","10453"
"96600741","2424 GNATTY CREEK ROAD","HUNTINGTON","NY","11743"
"96600742","2989 PALLET STREET","NEW YORK","NY","10013"
"96600743","708 COAL STREET","CLARION","PA","16214"
"96600744","3748 VALLEY LANE","AUSTIN","TX","78701"
"96600745","4064 PLAINFIELD AVENUE","EDWARDS","NY","13635"
"96600746","4783 GORE STREET","HOUSTON","TX","77030"
"96600747","2457 POCO MAS DRIVE","DALLAS","TX","75202"
"96600748","3 BROWNING LANE","CORTLAND","NY","13045"
"96600749","2834 CIRCLE DRIVE","HOUSTON","TX","77099"
"96600750","3957 WILSON AVENUE","RICHARDSON","TX","75081"
"96600751","3042 BEECHWOOD DRIVE","WILKINSBURG","PA","15221"
"96600752","1317 ANMOORE ROAD","BROOKLYN","NY","11213"
"96600753","3348 GEORGE STREET","BROOKSVILLE","FL","34601"
"96600754","1684 FOLEY STREET","BOCA RATON","FL","33486"
"96600755","1445 WASHINGTON STREET","CORPUS CHRISTI","TX","78476"
"96600756","1053 WINES LANE","HOUSTON","TX","77587"
"96600757","3309 PRIDE AVENUE","BROOKLYN","NY","11208"
"96600758","966 ETHELS LANE","LAKELAND","FL","33813"
"96600759","2909 TAYLOR STREET","NEW ROCHELLE","NY","10801"
"96600760","1657 OLEN THOMAS DRIVE","WICHITA FALLS","TX","76308"
"96600761","3017 AGRICULTURE LANE","MIAMI","FL","33165"
"96600762","4009 LAUREL LANE","PECOS","TX","79772"
"96600763","1017 HARLEY BROOK LANE","ALTOONA","PA","16601"
"96600764","322 MOORE AVENUE","DALLAS","TX","75240"
"96600765","504 JARVISVILLE ROAD","NEW YORK","NY","10011"
"96600766","1908 SAINT MARYS AVENUE","BELLEVILLE","NY","13611"
"96600767","3495 GRAND AVENUE","LONGWOOD","FL","32750"
"96600768","3989 STONEY LANE","ALLEN","TX","75002"
"96600769","1726 WEST FORK DRIVE","HOLLYWOOD","FL","33024"
"96600770","4492 BENEDUM DRIVE","ORANGEBURG","NY","10962"
"96600771","875 STAR TREK DRIVE","TALLAHASSEE","FL","32303"
"96600772","509 JAMES STREET","HENRIETTA","NY","14467"
"96600773","522 TERRY LANE","PALM BAY","FL","32905"
"96600774","2290 HALL PLACE","TEXARKANA","TX","75501"
"96600775","2241 JARVISVILLE ROAD","HICKSVILLE","NY","11801"
"96600776","2523 CONFERENCE CENTER WAY","SCRANTON","PA","18503"
"96600777","349 WEEKLEY STREET","SAN ANTONIO","TX","78213"
"96600778","98 BRANNON AVENUE","JACKSONVILLE","FL","32204"
"96600779","576 TREE TOP LANE","CONSHOHOCKEN","PA","19428"
"96600780","566 EMMA STREET","MIAMI","TX","79059"
"96600781","2180 ADAMSVILLE ROAD","MCALLEN","TX","78501"
"96600782","1510 BELL STREET","NEW YORK","NY","10005"
"96600783","3344 HEAVNER COURT","GARDEN CITY","NY","11530"
"96600784","2451 WINES LANE","HOUSTON","TX","77032"
"96600785","1746 CANTEBURY DRIVE","WESTBURY","NY","11590"
"96600786","4674 SIMONS HOLLOW ROAD","THOMPSON","PA","18465"
"96600787","1633 CHURCH STREET","BROOKLYN","NY","11234"
"96600788","688 GANDY STREET","SYRACUSE","NY","13202"
"96600789","2661 ERSEL STREET","FORT WORTH","TX","76102"
"96600790","3329 COAL ROAD","TURBOTVILLE","PA","17772"
"96600791","1870 ROCKY ROAD","PHILA","PA","19103"
"96600792","3713 FRANKLEE LANE","FORT WASHINGTON","PA","19034"
"96600793","3254 JONES STREET","DALLAS","TX","75201"
"96600794","1241 WORTHINGTON DRIVE","DALLAS","TX","75248"
"96600795","2459 WASHINGTON STREET","CORPUS CHRISTI","TX","78476"
"96600796","1554 GENEVA STREET","NEW YORK","NY","10016"
"96600797","4544 BARNES STREET","ORLANDO","FL","32810"
"96600798","580 ALPHA AVENUE","SHERMAN","TX","75090"
"96600799","4160 JODY ROAD","NORRISTOWN","PA","19403"
"96600800","3583 GOLDEN RIDGE ROAD","SCHENECTADY","NY","12305"
"96600801","3082 AARON SMITH DRIVE","EPHRATA","PA","17522"
"96600802","1088 WHISPERING PINES CIRCLE","CARROLLTON","TX","75006"
"96600803","1485 DEANS LANE","ELMSFORD","NY","10523"
"96600804","1087 GLEN FALLS ROAD","LANGHORNE","PA","19047"
"96600805","365 BENEDUM DRIVE","POMONA","NY","10970"
"96600806","2707 HIGH MEADOW LANE","WHITE HAVEN","PA","18861"
"96600807","4790 CHAPEL STREET","SUGAR LAND","TX","77478"
"96600808","4557 ROMINES MILL ROAD","DALLAS","TX","75247"
"96600809","1450 BUBBY DRIVE","AUSTIN","TX","78704"
"96600810","3273 MORRIS STREET","SAN ANTONIO","TX","78212"
"96600811","4629 GARRETT STREET","PORTLAND","PA","97205"
"96600812","3329 RIDENOUR STREET","MIAMI","FL","33169"
"96600813","2870 BELL STREET","NEW YORK","NY","10004"
"96600814","1913 MARION DRIVE","TAMPA","FL","33619"
"96600815","2676 ADAMSVILLE ROAD","MCALLEN","TX","78501"
"96600816","1722 BIRCH  STREET","EL PASO","TX","79901"
"96600817","3457 ANMOORE ROAD","BROOKLYN","NY","11235"
"96600818","1466 WARNER STREET","BIG PINE KEY","FL","33043"
"96600819","3091 CONFEDERATE DRIVE","SKANEATELES","NY","13152"
"96600820","3474 PHEASANT RIDGE ROAD","PHILADELPHIA","PA","19131"
"96600821","656 ELKVIEW DRIVE","WEST PALM BEACH","FL","33410"
"96600822","502 ELKVIEW DRIVE","FORT PIERCE","FL","34950"
"96600823","3756 CAMERON ROAD","BUFFALO","NY","14214"
"96600824","4758 RICHLAND AVENUE","SUGAR LAND","TX","77478"
"96600825","912 PHEASANT RIDGE ROAD","BENSALEM","PA","19020"
"96600826","3589 BASTIN DRIVE","EAGLEVILLE","PA","19403"
"96600827","3936 TERRY LANE","MELBOURNE","FL","32935"
"96600828","3194 LAUREL LANE","ODESSA","TX","79761"
"96600829","2314 PALLET STREET","NEW YORK","NY","10013"
"96600830","2993 SOUTH STREET","ODESSA","TX","79761"
"96600831","743 GLEN FALLS ROAD","PHILADELPHIA","PA","19108"
"96600832","1045 POPLAR LANE","MIAMI","FL","33127"
"96600833","4601 RIDENOUR STREET","MIAMI","FL","33131"
"96600834","2273 OAK STREET","ROME","NY","13440"
"96600835","3811 CANTEBURY DRIVE","NEW YORK","NY","10013"
"96600836","4392 MCDONALD AVENUE","MAITLAND","FL","32751"
"96600837","118 DUNCAN AVENUE","NEW YORK","NY","10013"
"96600838","4055 BICETOWN ROAD","NEW YORK","NY","10013"
"96600839","567 CANTEBURY DRIVE","NEW YORK","NY","10019"
"96600840","190 MORGAN STREET","TALLAHASSEE","FL","32304"
"96600841","4380 QUINCY STREET","PHILADELPHIA","PA","19108"
"96600842","3242 FANCHER DRIVE","DALLAS","TX","75207"
"96600843","2462 FROSTY LANE","SHERBURNE","NY","13460"
"96600844","4434 TRAILS END ROAD","BOCA RATON","FL","33486"
"96600845","2499 FROSTY LANE","WINDSOR","NY","13865"
"96600846","3025 SAINT JAMES DRIVE","MARIETTA","PA","17547"
"96600847","790 KENWOOD PLACE","DEERFIELD BEACH","FL","33442"
"96600848","1035 RINEHART ROAD","OPA LOCKA","FL","33054"
"96600849","2571 VALLEY DRIVE","EAGLEVILLE","PA","19403"
"96600850","1947 PICKENS WAY","FAIRFIELD","TX","75840"
"96600851","2042 CHARMAINE LANE","LUBBOCK","TX","79401"
"96600852","2076 WAYBACK LANE","LEVITTOWN","NY","11756"
"96600853","4206 CHARMAINE LANE","DALHART","TX","79022"
"96600854","365 WILKINSON COURT","FORT MYERS","FL","33901"
"96600855","3060 CUSTER STREET","DUKE CENTER","PA","16729"
"96600856","2649 ERSEL STREET","DALLAS","TX","75219"
"96600857","4015 JARVIS STREET","CHEEKTOWAGA","NY","14227"
"96600858","375 FIELDCREST ROAD","HUNTINGTON","NY","11743"
"96600859","1406 MOORE AVENUE","DALLAS","TX","75204"
"96600860","3941 REDBUD DRIVE","ELMSFORD","NY","10523"
"96600861","1656 ABIA MARTIN DRIVE","WESTBURY","NY","11590"
"96600862","4268 TIMBER OAK DRIVE","BOVINA","TX","79009"
"96600863","3399 BASTIN DRIVE","ALLENTOWN","PA","18101"
"96600864","535 PLATINUM DRIVE","GIBSONIA","PA","15044"
"96600865","2426 BICETOWN ROAD","NEW YORK","NY","10018"
"96600866","711 FELOSA DRIVE","ABILENE","TX","79602"
"96600867","837 LEO STREET","WASHINGTON","PA","15301"
"96600868","679 PATTERSON STREET","HOUSTON","TX","77026"
"96600869","3583 SPRUCE DRIVE","PITTSBURGH","PA","15222"
"96600870","4575 HIDE A WAY ROAD","OVIEDO","FL","32765"
"96600871","4822 MEDICAL CENTER DRIVE","SARASOTA","FL","34232"
"96600872","2624 CONFEDERATE DRIVE","SOUTH OTSELIC","NY","13155"
"96600873","4064 SARDIS STA","DALLAS","TX","75201"
"96600874","4997 BADGER POND LANE","TAMPA","FL","33607"
"96600875","3492 SUNBURST DRIVE","FORT MYERS","FL","33901"
"96600876","2330 HEMLOCK LANE","MCALLEN","TX","78501"
"96600877","2593 TIPPLE ROAD","SOUDERTON","PA","18964"
"96600878","4473 MORNINGVIEW LANE","NEW YORK","NY","10013"
"96600879","2662 CUSTER STREET","FISHERTOWN","PA","15539"
"96600880","1795 LONGVIEW AVENUE","NEW YORK","NY","10014"
"96600881","1009 WASHINGTON STREET","SINTON","TX","78387"
"96600882","123 WORTHINGTON DRIVE","GRAND PRAIRIE","TX","75051"
"96600883","2593 DEANS LANE","LA GRANGE (DUTCHESS)","NY","12540"
"96600884","1855 OLEN THOMAS DRIVE","DECATUR","TX","76234"
"96600885","2057 CAROLINA AVENUE","MCALLEN","TX","78501"
"96600886","4495 POINTE LANE","FORT LAUDERDALE","FL","33301"
"96600887","3896 PRIDE AVENUE","BRONX","NY","10461"
"96600888","46 PATTERSON ROAD","NEW YORK","NY","10017"
"96600889","587 BERNARDO STREET","TAMPA","FL","33634"
"96600890","2720 HIGH MEADOW LANE","SCRANTON","PA","18503"
"96600891","34 KENWOOD PLACE","FT LAUDERDALE","FL","33311"
"96600892","2092 COAL ROAD","MANSFIELD","PA","16933"
"96600893","4087 LOST CREEK ROAD","PHILADELPHIA","PA","19108"
"96600894","286 STONEYBROOK ROAD","COCOA","FL","32922"
"96600895","1549 WYATT STREET","BOCA RATON","FL","33487"
"96600896","770 BUCKHANNAN AVENUE","SYRACUSE","NY","13206"
"96600897","674 ETHELS LANE","LAKELAND","FL","33801"
"96600898","1316 MULBERRY LANE","LAKE WORTH","FL","33463"
"96600899","1316 BROOKVIEW DRIVE","HAMSHIRE","TX","77445"
"96600900","896 MONROE AVENUE","FORT MYERS","FL","33901"
"96600901","4654 SMALL STREET","NEW YORK","NY","10021"
"96600902","4972 OLEN THOMAS DRIVE","WICHITA FALLS","TX","76301"
"96600903","1612 BRENTWOOD DRIVE","GEORGETOWN","TX","78626"
"96600904","825 LINDEN AVENUE","ORLANDO","FL","32810"
"96600905","2468 LAMBERTS BRANCH ROAD","MIAMI","FL","33179"
"96600906","3604 FRANKLIN AVENUE","LAKE HELEN","FL","32744"
"96600907","267 REDBUD DRIVE","NEW YORK","NY","10011"
"96600908","2970 SETTLERS LANE","NEW YORK","NY","10007"
"96600909","3273 TRAVIS STREET","WEST PALM BEACH","FL","33401"
"96600910","1372 ARROWOOD DRIVE","FERNANDINA BEACH","FL","32034"
"96600911","3163 COLLINS STREET","CLARION","PA","16214"
"96600912","3226 STONEYBROOK ROAD","ORLANDO","FL","32810"
"96600913","3576 ARBUTUS DRIVE","MIAMI","FL","33147"
"96600914","283 WOODROW WAY","SAN AUGUSTINE","TX","75972"
"96600915","641 ADAMSVILLE ROAD","LAREDO","TX","78040"
"96600916","1561 CHERRY RIDGE DRIVE","ROCHESTER","NY","14608"
"96600917","2846 HEAVENS WAY","TAMPA","FL","33614"
"96600918","3534 TRAVIS STREET","WEST PALM BEACH","FL","33401"
"96600919","1339 STUART STREET","GIBSONIA","PA","15044"
"96600920","2684 BRIARHILL LANE","ABILENE","TX","79602"
"96600921","4463 GNATTY CREEK ROAD","LEVITTOWN","NY","11756"
"96600922","893 JEROME AVENUE","HARLINGEN","TX","78550"
"96600923","4067 CHESTNUT STREET","TAMPA","FL","33602"
"96600924","1338 RICHLAND AVENUE","SUGAR LAND","TX","77478"
"96600925","2792 BERKLEY STREET","PORTLAND","PA","97205"
"96600926","2742 STILES STREET","PITTSBURGH","PA","15222"
"96600927","820 BUCKHANNAN AVENUE","SYRACUSE","NY","13206"
"96600928","3928 WARD ROAD","EL PASO","TX","79912"
"96600929","4904 HANOVER STREET","NEW YORK","NY","10007"
"96600930","914 SMITHFIELD AVENUE","LUBBOCK","TX","79401"
"96600931","691 JAMES AVENUE","SYRACUSE","NY","13202"
"96600932","1057 COUNTY LINE ROAD","PLANT CITY","FL","33566"
"96600933","1299 STEVE HUNT ROAD","BOCA RATON","FL","33486"
"96600934","1428 SPRING AVENUE","NEWTOWN","PA","18940"
"96600935","3126 STONEY LONESOME ROAD","STROUDSBURG","PA","18360"
"96600936","1274 HINKLE DEEGAN LAKE ROAD","BINGHAMTON","NY","13901"
"96600937","2236 JOES ROAD","ALBANY","NY","12207"
"96600938","4135 CLIFFSIDE DRIVE","BINGHAMTON","NY","13901"
"96600939","3183 HOPE STREET","DALLAS","TX","75204"
"96600940","2927 BRANNON AVENUE","JACKSONVILLE","FL","32211"
"96600941","3142 ELM DRIVE","ELMSFORD","NY","10523"
"96600942","3101 STUART STREET","PITTSBURGH","PA","15219"
"96600943","1452 WERNINGER STREET","HOUSTON","TX","77030"
"96600944","3778 JARVIS STREET","BUFFALO","NY","14214"
"96600945","2440 PARRISH AVENUE","FREDERICKSBURG","TX","78624"
"96600946","4401 FRANK AVENUE","GIBSONIA","PA","15044"
"96600947","302 FORMULA LANE","ALLEN","TX","75002"
"96600948","2452 MEDICAL CENTER DRIVE","FORT MYERS","FL","33912"
"96600949","3374 MARION DRIVE","WINTER HAVEN","FL","33830"
"96600950","1519 WALDECK STREET","WEDGWOOD","TX","76133"
"96600951","4707 SPRUCE DRIVE","PITTSBURGH","PA","15222"
"96600952","2996 SPADAFORE DRIVE","STATE COLLEGE","PA","16803"
"96600953","1562 MARGARET STREET","HOUSTON","TX","77056"
"96600954","2645 BADGER POND LANE","BRIDGEVILLE","PA","15017"
"96600955","1421 ADAMS DRIVE","HOUSTON","TX","77099"
"96600956","2753 PINE STREET","WORTHINGTON","PA","16262"
"96600957","3311 SPIRIT DRIVE","ORMOND BEACH","FL","32174"
"96600958","2851 WINES LANE","HOUSTON","TX","77042"
"96600959","3882 PATTERSON ROAD","BROOKLYN","NY","11219"
"96600960","3885 BIRD SPRING LANE","DICKINSON","TX","77539"
"96600961","44 ASHTON LANE","AUSTIN","TX","78741"
"96600962","851 HILL HAVEN DRIVE","FORT WORTH","TX","76102"
"96600963","1191 QUINCY STREET","PHILADELPHIA","PA","19123"
"96600964","3347 MULBERRY LANE","WEST PALM BEACH","FL","33410"
"96600965","2485 SPRING AVENUE","HORSHAM","PA","19044"
"96600966","2647 FRANKLIN AVENUE","CORPUS CHRISTI","TX","78401"
"96600967","2542 STONEY LANE","IRVING","TX","75039"
"96600968","2838 COLONIAL DRIVE","SUGAR LAND","TX","77478"
"96600969","2177 SOUTH STREET","MIDLANDS","TX","79756"
"96600970","481 CHARDONNAY DRIVE","OCALA","FL","34471"
"96600971","1465 AARON SMITH DRIVE","CARLISLE","PA","17013"
"96600972","4759 ALFRED DRIVE","HARRISBURG","PA","17111"
"96600973","4452 RINEHART ROAD","MIAMI","FL","33196"
"96600974","2445 ALPHA AVENUE","LONGVIEW","TX","75601"
"96600975","4324 CHERRY TREE DRIVE","JACKSONVILLE","FL","32202"
"96600976","2108 BEECHWOOD DRIVE","BRADDOCK","PA","15104"
"96600977","3846 FELOSA DRIVE","SAN ANGELO","TX","76903"
"96600978","1134 STATION STREET","AUSTIN","TX","78741"
"96600979","4400 CHARLA LANE","RICHARDSON","TX","75081"
"96600980","2062 MONROE STREET","HOUSTON","TX","77047"
"96600981","2025 PLATINUM DRIVE","CANONSBURG","PA","15317"
"96600982","3254 PLEASANT HILL ROAD","MIAMI","FL","33128"
"96600983","2804 OLEN THOMAS DRIVE","WICHITA FALLS","TX","76301"
"96600984","2998 WHITE AVENUE","CORPUS CHRISTI","TX","78476"
"96600985","1199 CHAPEL STREET","SUGAR LAND","TX","77487"
"96600986","3760 BOTTOM LANE","WEST SENECA","NY","14224"
"96600987","2754 CHARMAINE LANE","FLOMOT","TX","79234"
"96600988","2330 ASHTON LANE","AUSTIN","TX","78701"
"96600989","2927 ERSEL STREET","DALLAS","TX","75225"
"96600990","1426 AMERICAN DRIVE","PENSACOLA","FL","32505"
"96600991","2496 DUNCAN AVENUE","WHITESTONE","NY","11357"
"96600992","2351 RICHLAND AVENUE","SPRING","TX","77386"
"96600993","1282 MICHIGAN AVENUE","PITTSBURGH","PA","15203"
"96600994","3398 WHISPERING PINES CIRCLE","ROWLETT","TX","75088"
"96600995","611 GOLDEN STREET","MIAMI","FL","33176"
"96600996","4104 BENEDUM DRIVE","FLEISCHMANNS","NY","12430"
"96600997","2021 WHITETAIL LANE","DALLAS","TX","75234"
"96600998","2521 WYATT STREET","BOCA RATON","FL","33487"
"96600999","2199 MULBERRY LANE","BOCA RATON","FL","33434"
"96601000","787 LYNN OGDEN LANE","BEAUMONT","TX","77701"
"96601001","3420 OAKDALE AVENUE","DUNDEE","FL","33838"
"96601002","1188 WHITETAIL LANE","DALLAS","TX","75204"
"96601003","4238 WILLIS AVENUE","PORT ORANGE","FL","32129"
"96601004","3835 MY DRIVE","GARDEN CITY","NY","11530"
"96601005","1261 SOUTH STREET","MIDLANDS","TX","79756"
"96601006","4366 BURNING MEMORY LANE","HATBORO","PA","19040"
"96601007","3268 WHISPERING PINES CIRCLE","IRVING","TX","75039"
"96601008","385 CHURCH STREET","BROOKLYN","NY","11219"
"96601009","489 MORGAN STREET","SEAGROVE BEACH","FL","32458"
"96601010","827 SCOTT STREET","BARRYVILLE","NY","12719"
"96601011","1321 OAKRIDGE LANE","DALLAS","TX","75204"
"96601012","2590 FANCHER DRIVE","DALLAS","TX","75247"
"96601013","2278 FIELDCREST ROAD","NEW YORK","NY","10013"
"96601014","540 GOLDEN RIDGE ROAD","ALBANY","NY","12207"
"96601015","4754 VIRGIL STREET","FORT WALTON BEACH","FL","32548"
"96601016","1428 VILLAGE VIEW DRIVE","FORT MYERS","FL","33901"
"96601017","2478 RICHLAND AVENUE","HOUSTON","TX","77038"
"96601018","1158 HORSESHOE LANE","PHILADELPHIA","PA","19108"
"96601019","3672 WORTHINGTON DRIVE","RICHARDSON","TX","75081"
"96601020","361 CALDWELL ROAD","BUFFALO","NY","14202"
"96601021","1398 NORMA AVENUE","EVERGREEN","TX","77331"
"96601022","4441 BOONE STREET","CORPUS CHRISTI","TX","78473"
"96601023","886 MICHIGAN AVENUE","BRIDGEVILLE","PA","15017"
"96601024","3681 SPRUCE DRIVE","IRWIN","PA","15642"
"96601025","3670 TAYLOR STREET","NEW YORK","NY","10007"
"96601026","1964 WEST FORK DRIVE","PLANTATION","FL","33324"
"96601027","1672 STONEYBROOK ROAD","ORLANDO","FL","32803"
"96601028","3659 JEROME AVENUE","SAN ANTONIO","TX","78217"
"96601029","1776 GNATTY CREEK ROAD","HUNTINGTON","NY","11743"
"96601030","1443 GRAND AVENUE","ORLANDO","FL","32810"
"96601031","1683 MARIGOLD LANE","MIAMI","FL","33176"
"96601032","967 FANCHER DRIVE","DALLAS","TX","75207"
"96601033","2763 LOVING ACRES ROAD","FORT WORTH","TX","76111"
"96601034","1575 FELOSA DRIVE","ABILENE","TX","79602"
"96601035","2086 FORMULA LANE","DALLAS","TX","75234"
"96601036","3910 DUNCAN AVENUE","NEW YORK","NY","10040"
"96601037","3845 CIRCLE DRIVE","HOUSTON","TX","77006"
"96601038","1520 COAL ROAD","SUGAR NOTCH","PA","18706"
"96601039","2530 ELKVIEW DRIVE","STUART","FL","34994"
"96601040","439 STONE LANE","BENSALEM","PA","19020"
"96601041","1779 ELKVIEW DRIVE","MIAMI","FL","33128"
"96601042","66 FANNIE STREET","BRYAN","TX","77808"
"96601043","2046 MARSHVILLE ROAD","ANDES","NY","13731"
"96601044","3218 COAL STREET","ALTOONA","PA","16601"
"96601045","4525 MARSHVILLE ROAD","CHESTER","NY","10918"
"96601046","4313 PICKENS WAY","RICHLAND","TX","76681"
"96601047","3204 LAMBERTS BRANCH ROAD","FORT LAUDERDALE","FL","33301"
"96601048","3628 CUSTER STREET","STATE COLLEGE","PA","16801"
"96601049","2773 MCDONALD AVENUE","ORLANDO","FL","32809"
"96601050","4356 WARD ROAD","EL PASO","TX","79901"
"96601051","2461 COLONIAL DRIVE","MORAVIA","TX","77964"
"96601052","4302 CARRIAGE LANE","TOWANDA","PA","18848"
"96601053","2579 GOLDEN RIDGE ROAD","ALBANY","NY","12207"
"96601054","3990 CHANDLER HOLLOW ROAD","PITTSBURGH","PA","15215"
"96601055","1992 GNATTY CREEK ROAD","GARDEN CITY","NY","11530"
"96601056","4116 EMMA STREET","AMARILLO","TX","79109"
"96601057","4140 BROOKE STREET","HOUSTON","TX","77020"
"96601058","3620 SETH STREET","LUBBOCK","TX","79414"
"96601059","4775 LYNDON STREET","NAZARETH","PA","18064"
"96601060","1814 RENWICK DRIVE","EAGLEVILLE","PA","19403"
"96601061","366 CARRIAGE LANE","PITTSTON","PA","18640"
"96601062","736 STILES STREET","PITTSBURGH","PA","15206"
"96601063","1704 LONG STREET","GAINESVILLE","FL","32601"
"96601064","1988 WORTHINGTON DRIVE","RICHARDSON","TX","75081"
"96601065","645 WEST FORK DRIVE","FORT LAUDERDALE","FL","33301"
"96601066","1080 STUART STREET","BRIDGEVILLE","PA","15017"
"96601067","726 SETH STREET","LLANO","TX","97643"
"96601068","4956 DUNCAN AVENUE","GARDEN CITY","NY","11530"
"96601069","1371 OCALA STREET","ORLANDO","FL","32805"
"96601070","754 BEECHWOOD DRIVE","PITTSBURGH","PA","15210"
"96601071","2527 DRAINER AVENUE","YOUNGSTOWN","FL","32466"
"96601072","1126 JARVIS STREET","CHEEKTOWAGA","NY","14227"
"96601073","3824 SETTLERS LANE","NEW YORK","NY","10007"
"96601074","3772 FLORENCE STREET","TYLER","TX","75757"
"96601075","593 AGRICULTURE LANE","HOMESTEAD","FL","33032"
"96601076","234 MULBERRY STREET","SAN AUGUSTINE","TX","75972"
"96601077","32 STONEY LANE","GRAND PRAIRIE","TX","75051"
"96601078","3145 SUNBURST DRIVE","FORT MYERS","FL","33908"
"96601079","1160 BURNING MEMORY LANE","AMBLER","PA","19002"
"96601080","1623 STILES STREET","BRIDGEVILLE","PA","15017"
"96601081","3358 RHAPSODY STREET","GAINESVILLE","FL","32601"
"96601082","1084 COUNTY LINE ROAD","NEW PORT RICHEY","FL","34652"
"96601083","36 FILBERT STREET","RIDLEY PARK","PA","19078"
"96601084","2170 ELKVIEW DRIVE","FORT LAUDERDALE","FL","33301"
"96601085","3826 WORTHINGTON DRIVE","PLANO","TX","75074"
"96601086","1169 BICETOWN ROAD","NEW YORK","NY","10016"
"96601087","2468 LINDEN AVENUE","ORLANDO","FL","32801"
"96601088","3584 OCALA STREET","ORLANDO","FL","32805"
"96601089","4558 FARLAND AVENUE","UVALDE","TX","78801"
"96601090","4753 CARRIAGE LANE","CLIFFORD","PA","18413"
"96601091","4804 SMITHFIELD AVENUE","SPEARMAN","TX","79081"
"96601092","3368 HINKLE DEEGAN LAKE ROAD","MASONVILLE","NY","13804"
"96601093","832 FOREST AVENUE","NEW YORK","NY","10016"
"96601094","1095 WYATT STREET","DORAL","FL","33166"
"96601095","66 JAMES STREET","HONEOYE FALLS","NY","14472"
"96601096","2043 STONEY LONESOME ROAD","BLOOMSBURG","PA","17815"
"96601097","391 TIPPLE ROAD","EAGLEVILLE","PA","19403"
"96601098","3585 BRIERCLIFF ROAD","CORONA","NY","11368"
"96601099","3105 HILLTOP DRIVE","M966HIS","TX","79245"
"96601100","1160 CARRIAGE LANE","KINGSTON","PA","18704"
"96601101","2042 TETRICK ROAD","FORT MYERS","FL","33901"
"96601102","353 BRIERCLIFF ROAD","BRONX","NY","10467"
"96601103","206 STANLEY AVENUE","H966STEAD","NY","11550"
"96601104","3686 HENRY FORD AVENUE","NEW YORK","NY","10016"
"96601105","1901 HANOVER STREET","GARDEN CITY","NY","11530"
"96601106","140 EVERETTE ALLEY","FORT LAUDERDALE","FL","33301"
"96601107","1500 PAYNE STREET","HOUSTON","TX","77002"
"96601108","4155 MULBERRY STREET","NACOGDOCHES","TX","75964"
"96601109","3318 STILES STREET","PITTSBURGH","PA","15219"
"96601110","4488 FLORENCE STREET","TYLER","TX","75702"
"96601111","3191 MOUNT TABOR","NEW YORK","NY","10013"
"96601112","1195 MULBERRY STREET","NACOGDOCHES","TX","75964"
"96601113","2323 CHAPEL STREET","LEAGUE CITY","TX","77573"
"96601114","4560 RICHLAND AVENUE","HOUSTON","TX","77077"
"96601115","2643 AMERICAN DRIVE","PENSACOLA","FL","32501"
"96601116","2157 FIDLER DRIVE","SAN ANTONIO","TX","78205"
"96601117","4723 LAKE FOREST DRIVE","NEW YORK","NY","10121"
"96601118","4861 CLOUSSON ROAD","HOUSTON","TX","77006"
"96601119","3925 FRANKLEE LANE","KING OF PRUSSIA","PA","19406"
"96601120","441 ROCKY ROAD","PHILADELPHIA","PA","19108"
"96601121","3378 SHINN STREET","NEW YORK","NY","10022"
"96601122","4055 MORGAN STREET","FORT WALTON BEACH","FL","32548"
"96601123","4749 SYCAMORE CIRCLE","BLUE MOUND","TX","76131"
"96601124","2663 ARBUTUS DRIVE","MIAMI","FL","33179"
"96601125","4563 ALFRED DRIVE","NEW YORK","NY","10011"
"96601126","2565 CAROLYNS CIRCLE","DALLAS","TX","75202"
"96601127","1251 STANLEY AVENUE","LEVITTOWN","NY","11756"
"96601128","1988 SMITHFIELD AVENUE","LUBBOCK","TX","79401"
"96601129","3832 CHARLA LANE","DALLAS","TX","75240"
"96601130","4154 BICETOWN ROAD","NEW YORK","NY","10007"
"96601131","4700 RHAPSODY STREET","LEESBURG","FL","32749"
"96601132","586 QUINCY STREET","WARMINSTER","PA","18974"
"96601133","1423 BIRCH  STREET","EL PASO","TX","79930"
"96601134","3907 WILSON AVENUE","ALLEN","TX","75002"
"96601135","3367 LADY BUG DRIVE","WHITESTONE","NY","11357"
"96601136","4434 SAINT MARYS AVENUE","SYRACUSE","NY","13202"
"96601137","1356 HILLTOP DRIVE","PEACOCK","TX","79542"
"96601138","3432 ERSEL STREET","DALLAS","TX","75202"
"96601139","2113 HINKLE DEEGAN LAKE ROAD","ITHACA","NY","14850"
"96601140","2156 TODDS LANE","SAN ANTONIO","TX","78229"
"96601141","237 BENEDUM DRIVE","POUGHKEEPSIE","NY","12601"
"96601142","4597 TREE TOP LANE","PHILADELPHIA","PA","19108"
"96601143","2283 PARRISH AVENUE","BALCONES","TX","78006"
"96601144","4412 HEAVNER COURT","NEW HYDE PARK","NY","11042"
"96601145","2022 SAINT MARYS AVENUE","SYRACUSE","NY","13202"
"96601146","2753 BOONE STREET","CORPUS CHRISTI","TX","78401"
